TRANSPORTER-15DM        
1 66773U 25276DM  25363.13645386  .00016173  00000+0  78352-3 0  9991
2 66773  97.4426  74.6714 0003236  89.5718 270.5887 15.18616972  4618
TRANSPORTER-15DN        
1 66774U 25276DN  25363.26746776  .00016241  00000+0  78509-3 0  9991
2 66774  97.4412  74.7964 0003083  88.1648 271.9939 15.18692980  4637
PHI 1                   
1 66775U 25276DP  25363.26642655  .00016966  00000+0  81842-3 0  9991
2 66775  97.4338  74.7702 0002626  57.3019 302.8468 15.18757180  4632
TRANSPORTER-15DQ        
1 66776U 25276DQ  25363.26584345  .00016691  00000+0  80380-3 0  9994
2 66776  97.4376  74.7854 0002820  72.7703 287.3840 15.18818797  4633
TRANSPORTER-15DR        
1 66777U 25276DR  25363.26249072  .00019540  00000+0  93269-3 0  9996
2 66777  97.4466  74.8230 0003656  97.6887 262.4763 15.19092412  4637
TRANSPORTER-15DS        
1 66778U 25276DS  25363.16870543  .00009037  00000+0  46478-3 0  9999
2 66778  97.4408  74.6216 0002402  12.7832 347.3461 15.16669497  4618
STARLINK-35867          
1 66791U 25278A   25363.00001157  .00062190  00000+0  14865-2 0  9999
2 66791  42.9994 155.4879 0001497 276.6584 172.4906 15.40648114  5576
STARLINK-35990          
1 66792U 25278B   25362.82911838  .00133045  00000+0  22267-2 0  9998
2 66792  43.0006 156.1323 0001496 313.2750  46.7985 15.50688240  4357
STARLINK-36051          
1 66793U 25278C   25362.76401408  .00100840  00000+0  17014-2 0  9990
2 66793  43.0019 156.5037 0002663 316.8297  43.2355 15.50597188  4342
STARLINK-36062          
1 66794U 25278D   25363.33335648  .00091336  00000+0  21719-2 0  9993
2 66794  42.9997 153.3246 0001675 253.9101 345.7781 15.40641161  5625
STARLINK-36047          
1 66795U 25278E   25363.33335648  .00075073  00000+0  17909-2 0  9990
2 66795  42.9993 153.4452 0001601 266.9251 283.0972 15.40630960  5521
STARLINK-35964          
1 66796U 25278F   25362.76032757  .00239504  00000+0  11660-2 0  9991
2 66796  42.9903 152.8719 0001185 296.0361  64.0388 15.80930517  4381
