CCSDS_OMM_VERS = 2.0
CREATION_DATE  = 
ORIGINATOR     = 

OBJECT_NAME    = TRANSPORTER-15DM
OBJECT_ID      = 2025-276DM
CENTER_NAME    = EARTH
REF_FRAME      = TEME
TIME_SYSTEM    = UTC
MEAN_ELEMENT_THEORY = SGP/SGP4

EPOCH          = 2025-12-29T03:16:29.613504
MEAN_MOTION    = 15.18616972
ECCENTRICITY   = .00032369
INCLINATION    = 97.4426
RA_OF_ASC_NODE = 74.6714
ARG_OF_PERICENTER = 89.5718
MEAN_ANOMALY   = 270.5887

EPHEMERIS_TYPE = 0
CLASSIFICATION_TYPE = U
NORAD_CAT_ID   = 66773
ELEMENT_SET_NO = 999
REV_AT_EPOCH   = 461
BSTAR          = .78352209E-3
MEAN_MOTION_DOT = .16173E-3
MEAN_MOTION_DDOT = 0

CCSDS_OMM_VERS = 2.0
CREATION_DATE  = 
ORIGINATOR     = 

OBJECT_NAME    = TRANSPORTER-15DN
OBJECT_ID      = 2025-276DN
CENTER_NAME    = EARTH
REF_FRAME      = TEME
TIME_SYSTEM    = UTC
MEAN_ELEMENT_THEORY = SGP/SGP4

EPOCH          = 2025-12-29T06:25:09.214464
MEAN_MOTION    = 15.18692980
ECCENTRICITY   = .00030832
INCLINATION    = 97.4412
RA_OF_ASC_NODE = 74.7964
ARG_OF_PERICENTER = 88.1648
MEAN_ANOMALY   = 271.9939

EPHEMERIS_TYPE = 0
CLASSIFICATION_TYPE = U
NORAD_CAT_ID   = 66774
ELEMENT_SET_NO = 999
REV_AT_EPOCH   = 463
BSTAR          = .7850882E-3
MEAN_MOTION_DOT = .16241E-3
MEAN_MOTION_DDOT = 0

CCSDS_OMM_VERS = 2.0
CREATION_DATE  = 
ORIGINATOR     = 

OBJECT_NAME    = PHI 1
OBJECT_ID      = 2025-276DP
CENTER_NAME    = EARTH
REF_FRAME      = TEME
TIME_SYSTEM    = UTC
MEAN_ELEMENT_THEORY = SGP/SGP4

EPOCH          = 2025-12-29T06:23:39.253920
MEAN_MOTION    = 15.18757180
ECCENTRICITY   = .00026262
INCLINATION    = 97.4338
RA_OF_ASC_NODE = 74.7702
ARG_OF_PERICENTER = 57.3019
MEAN_ANOMALY   = 302.8468

EPHEMERIS_TYPE = 0
CLASSIFICATION_TYPE = U
NORAD_CAT_ID   = 66775
ELEMENT_SET_NO = 999
REV_AT_EPOCH   = 463
BSTAR          = .81841825E-3
MEAN_MOTION_DOT = .16966E-3
MEAN_MOTION_DDOT = 0

CCSDS_OMM_VERS = 2.0
CREATION_DATE  = 
ORIGINATOR     = 

OBJECT_NAME    = TRANSPORTER-15DQ
OBJECT_ID      = 2025-276DQ
CENTER_NAME    = EARTH
REF_FRAME      = TEME
TIME_SYSTEM    = UTC
MEAN_ELEMENT_THEORY = SGP/SGP4

EPOCH          = 2025-12-29T06:22:48.874080
MEAN_MOTION    = 15.18818797
ECCENTRICITY   = .00028204
INCLINATION    = 97.4376
RA_OF_ASC_NODE = 74.7854
ARG_OF_PERICENTER = 72.7703
MEAN_ANOMALY   = 287.3840

EPHEMERIS_TYPE = 0
CLASSIFICATION_TYPE = U
NORAD_CAT_ID   = 66776
ELEMENT_SET_NO = 999
REV_AT_EPOCH   = 463
BSTAR          = .80380409E-3
MEAN_MOTION_DOT = .16691E-3
MEAN_MOTION_DDOT = 0

CCSDS_OMM_VERS = 2.0
CREATION_DATE  = 
ORIGINATOR     = 

OBJECT_NAME    = TRANSPORTER-15DR
OBJECT_ID      = 2025-276DR
CENTER_NAME    = EARTH
REF_FRAME      = TEME
TIME_SYSTEM    = UTC
MEAN_ELEMENT_THEORY = SGP/SGP4

EPOCH          = 2025-12-29T06:17:59.198208
MEAN_MOTION    = 15.19092412
ECCENTRICITY   = .00036562
INCLINATION    = 97.4466
RA_OF_ASC_NODE = 74.8230
ARG_OF_PERICENTER = 97.6887
MEAN_ANOMALY   = 262.4763

EPHEMERIS_TYPE = 0
CLASSIFICATION_TYPE = U
NORAD_CAT_ID   = 66777
ELEMENT_SET_NO = 999
REV_AT_EPOCH   = 463
BSTAR          = .9326874E-3
MEAN_MOTION_DOT = .1954E-3
MEAN_MOTION_DDOT = 0

CCSDS_OMM_VERS = 2.0
CREATION_DATE  = 
ORIGINATOR     = 

OBJECT_NAME    = TRANSPORTER-15DS
OBJECT_ID      = 2025-276DS
CENTER_NAME    = EARTH
REF_FRAME      = TEME
TIME_SYSTEM    = UTC
MEAN_ELEMENT_THEORY = SGP/SGP4

EPOCH          = 2025-12-29T04:02:56.149152
MEAN_MOTION    = 15.16669497
ECCENTRICITY   = .00024027
INCLINATION    = 97.4408
RA_OF_ASC_NODE = 74.6216
ARG_OF_PERICENTER = 12.7832
MEAN_ANOMALY   = 347.3461

EPHEMERIS_TYPE = 0
CLASSIFICATION_TYPE = U
NORAD_CAT_ID   = 66778
ELEMENT_SET_NO = 999
REV_AT_EPOCH   = 461
BSTAR          = .46477526E-3
MEAN_MOTION_DOT = .9037E-4
MEAN_MOTION_DDOT = 0

CCSDS_OMM_VERS = 2.0
CREATION_DATE  = 
ORIGINATOR     = 

OBJECT_NAME    = STARLINK-35867
OBJECT_ID      = 2025-278A
CENTER_NAME    = EARTH
REF_FRAME      = TEME
TIME_SYSTEM    = UTC
MEAN_ELEMENT_THEORY = SGP/SGP4

EPOCH          = 2025-12-29T00:00:00.999648
MEAN_MOTION    = 15.40648114
ECCENTRICITY   = .00014977
INCLINATION    = 42.9994
RA_OF_ASC_NODE = 155.4879
ARG_OF_PERICENTER = 276.6584
MEAN_ANOMALY   = 172.4906

EPHEMERIS_TYPE = 0
CLASSIFICATION_TYPE = U
NORAD_CAT_ID   = 66791
ELEMENT_SET_NO = 999
REV_AT_EPOCH   = 557
BSTAR          = .14864588E-2
MEAN_MOTION_DOT = .6219E-3
MEAN_MOTION_DDOT = 0

CCSDS_OMM_VERS = 2.0
CREATION_DATE  = 
ORIGINATOR     = 

OBJECT_NAME    = STARLINK-35990
OBJECT_ID      = 2025-278B
CENTER_NAME    = EARTH
REF_FRAME      = TEME
TIME_SYSTEM    = UTC
MEAN_ELEMENT_THEORY = SGP/SGP4

EPOCH          = 2025-12-28T19:53:55.828032
MEAN_MOTION    = 15.50688240
ECCENTRICITY   = .00014962
INCLINATION    = 43.0006
RA_OF_ASC_NODE = 156.1323
ARG_OF_PERICENTER = 313.2750
MEAN_ANOMALY   = 46.7985

EPHEMERIS_TYPE = 0
CLASSIFICATION_TYPE = U
NORAD_CAT_ID   = 66792
ELEMENT_SET_NO = 999
REV_AT_EPOCH   = 435
BSTAR          = .22266502E-2
MEAN_MOTION_DOT = .133045E-2
MEAN_MOTION_DDOT = 0

CCSDS_OMM_VERS = 2.0
CREATION_DATE  = 
ORIGINATOR     = 

OBJECT_NAME    = STARLINK-36051
OBJECT_ID      = 2025-278C
CENTER_NAME    = EARTH
REF_FRAME      = TEME
TIME_SYSTEM    = UTC
MEAN_ELEMENT_THEORY = SGP/SGP4

EPOCH          = 2025-12-28T18:20:10.816512
MEAN_MOTION    = 15.50597188
ECCENTRICITY   = .0002663
INCLINATION    = 43.0019
RA_OF_ASC_NODE = 156.5037
ARG_OF_PERICENTER = 316.8297
MEAN_ANOMALY   = 43.2355

EPHEMERIS_TYPE = 0
CLASSIFICATION_TYPE = U
NORAD_CAT_ID   = 66793
ELEMENT_SET_NO = 999
REV_AT_EPOCH   = 434
BSTAR          = .17014391E-2
MEAN_MOTION_DOT = .10084E-2
MEAN_MOTION_DDOT = 0

CCSDS_OMM_VERS = 2.0
CREATION_DATE  = 
ORIGINATOR     = 

OBJECT_NAME    = STARLINK-36062
OBJECT_ID      = 2025-278D
CENTER_NAME    = EARTH
REF_FRAME      = TEME
TIME_SYSTEM    = UTC
MEAN_ELEMENT_THEORY = SGP/SGP4

EPOCH          = 2025-12-29T08:00:01.999872
MEAN_MOTION    = 15.40641161
ECCENTRICITY   = .00016759
INCLINATION    = 42.9997
RA_OF_ASC_NODE = 153.3246
ARG_OF_PERICENTER = 253.9101
MEAN_ANOMALY   = 345.7781

EPHEMERIS_TYPE = 0
CLASSIFICATION_TYPE = U
NORAD_CAT_ID   = 66794
ELEMENT_SET_NO = 999
REV_AT_EPOCH   = 562
BSTAR          = .21718806E-2
MEAN_MOTION_DOT = .91336E-3
MEAN_MOTION_DDOT = 0

CCSDS_OMM_VERS = 2.0
CREATION_DATE  = 
ORIGINATOR     = 

OBJECT_NAME    = STARLINK-36047
OBJECT_ID      = 2025-278E
CENTER_NAME    = EARTH
REF_FRAME      = TEME
TIME_SYSTEM    = UTC
MEAN_ELEMENT_THEORY = SGP/SGP4

EPOCH          = 2025-12-29T08:00:01.999872
MEAN_MOTION    = 15.40630960
ECCENTRICITY   = .0001601
INCLINATION    = 42.9993
RA_OF_ASC_NODE = 153.4452
ARG_OF_PERICENTER = 266.9251
MEAN_ANOMALY   = 283.0972

EPHEMERIS_TYPE = 0
CLASSIFICATION_TYPE = U
NORAD_CAT_ID   = 66795
ELEMENT_SET_NO = 999
REV_AT_EPOCH   = 552
BSTAR          = .17908762E-2
MEAN_MOTION_DOT = .75073E-3
MEAN_MOTION_DDOT = 0

CCSDS_OMM_VERS = 2.0
CREATION_DATE  = 
ORIGINATOR     = 

OBJECT_NAME    = STARLINK-35964
OBJECT_ID      = 2025-278F
CENTER_NAME    = EARTH
REF_FRAME      = TEME
TIME_SYSTEM    = UTC
MEAN_ELEMENT_THEORY = SGP/SGP4

EPOCH          = 2025-12-28T18:14:52.302048
MEAN_MOTION    = 15.80930517
ECCENTRICITY   = .00011852
INCLINATION    = 42.9903
RA_OF_ASC_NODE = 152.8719
ARG_OF_PERICENTER = 296.0361
MEAN_ANOMALY   = 64.0388

EPHEMERIS_TYPE = 0
CLASSIFICATION_TYPE = U
NORAD_CAT_ID   = 66796
ELEMENT_SET_NO = 999
REV_AT_EPOCH   = 438
BSTAR          = .1166011E-2
MEAN_MOTION_DOT = .239504E-2
MEAN_MOTION_DDOT = 0

